[{"OBJECT_NAME":"PRAETORIAN SDA_621","OBJECT_ID":"2025-203V","EPOCH":"2026-03-09T14:20:07.156320","MEAN_MOTION":13.83787478,"ECCENTRICITY":0.0008673,"INCLINATION":81.2989,"RA_OF_ASC_NODE":102.9072,"ARG_OF_PERICENTER":96.3239,"MEAN_ANOMALY":263.8905,"EPHEMERIS_TYPE":0,"CLASSIFICATION_TYPE":"U","NORAD_CAT_ID":65584,"ELEMENT_SET_NO":999,"REV_AT_EPOCH":2492,"BSTAR":5.4754e-5,"MEAN_MOTION_DOT":7.3e-7,"MEAN_MOTION_DDOT":0},{"OBJECT_NAME":"SL-8 R\/B","OBJECT_ID":"1985-116B","EPOCH":"2026-03-09T17:55:16.277088","MEAN_MOTION":13.77179698,"ECCENTRICITY":0.00350675,"INCLINATION":82.938,"RA_OF_ASC_NODE":137.3225,"ARG_OF_PERICENTER":236.2653,"MEAN_ANOMALY":243.8898,"EPHEMERIS_TYPE":0,"CLASSIFICATION_TYPE":"U","NORAD_CAT_ID":16369,"ELEMENT_SET_NO":999,"REV_AT_EPOCH":2034,"BSTAR":8.058378e-5,"MEAN_MOTION_DOT":9.5e-7,"MEAN_MOTION_DDOT":0}]
